H-2A R/B                
1 28932U 06002B   26069.40100655  .00013102  00000+0  65433-3 0  9996
2 28932  98.2415 216.4856 0051870 238.5346 121.0809 15.16440954 94541
RESURS-DK 1             
1 29228U 06021A   26069.52732711  .00003895  00000+0  22766-3 0  9993
2 29228  69.9317 234.8558 0001829 162.7089 197.4140 15.12751468 87650
CZ-4B R/B               
1 29507U 06046C   26069.13693909  .00006097  00000+0  30893-3 0  9999
2 29507  97.5597 114.0449 0031696 265.6570  94.1041 15.16910437 60110
CZ-2C R/B               
1 31114U 07010B   26069.28949325  .00000161  00000+0  93211-4 0  9990
2 31114  98.3979 182.5381 0057940 292.8235  66.6829 14.20246402979806
COSMO-SKYMED 1          
1 31598U 07023A   26069.53368356  .00004463  00000+0  39761-3 0  9995
2 31598  97.8874 260.5720 0001331  99.5351 260.6021 14.96543052 15038
COSMOS 2428             
1 31792U 07029A   26069.52585181  .00000058  00000+0  56710-4 0  9993
2 31792  70.9434 201.5877 0009138 276.1316  83.8764 14.12946345964215
SL-16 R/B               
1 31793U 07029B   26069.48579718  .00000077  00000+0  64928-4 0  9999
2 31793  70.9759 170.7116 0002312 276.0314 160.3948 14.14833530965481
KORONAS-FOTON           
1 33504U 09003A   26069.02364837  .00011166  00000+0  24919-3 0  9995
2 33504  82.4278 275.5305 0011331 148.5286 211.6641 15.43329428945794
CZ-2C R/B               
1 37731U 11030B   26069.50045270  .00002271  00000+0  29177-3 0  9992
2 37731  97.8546  26.7473 0052315 349.4502 126.8060 14.81227075790213
H-2A R/B                
1 38341U 12025E   26069.46473603  .00004815  00000+0  43651-3 0  9994
2 38341  98.4739  36.5733 0043295 311.8871  47.8657 14.95178903748339
SHIJIAN-16 (SJ-16)      
1 39358U 13057A   26069.50054360  .00001130  00000+0  11312-3 0  9995
2 39358  74.9732 183.5532 0015459 110.3205 249.9646 14.92348290671629
SL-4 R/B                
1 39679U 14021B   26069.14835710  .00018624  00000+0  40816-3 0  9996
2 39679  51.6079 335.0419 0097452 104.7108 256.4701 15.39198695656342
